NORAD_CAT_ID,OBJECT_NAME,OBJECT_TYPE,EPOCH,MEAN_MOTION,ECCENTRICITY,INCLINATION,RA_OF_ASC_NODE,ARG_OF_PERICENTER,MEAN_ANOMALY,BSTAR,MEAN_MOTION_DOT,MEAN_MOTION_DDOT,TLE_LINE0,TLE_LINE1,TLE_LINE2,SEMIMAJOR_AXIS,PERIOD,APOGEE,PERIGEE,DECAYED
53734.0,STARLINK-4616,PAYLOAD,2023-10-19 17:05:56,15.08865561,0.0001526,53.2162,208.6532,84.8171,275.2995,0.0021478,0.00034084,0.0,0 STARLINK-4616,1 53734U 22107AL  23292.71245549  .00034084  00000-0  21478-2 0  9992,2 53734  53.2162 208.6532 0001526  84.8171 275.2995 15.08865561 62318,6917.802,95.436,540.723,538.612,0.0
53734.0,STARLINK-4616,PAYLOAD,2023-10-20 01:02:51,15.08869564,0.0001367,53.2162,207.1661,98.9048,261.2099,0.0022938,0.00036436,0.0,0 STARLINK-4616,1 53734U 22107AL  23293.04364971  .00036436  00000-0  22938-2 0  9995,2 53734  53.2162 207.1661 0001367  98.9048 261.2099 15.08869564 62369,6917.79,95.436,540.601,538.709,0.0
53734.0,STARLINK-4616,PAYLOAD,2023-10-20 18:32:06,15.08847872,0.0001636,53.2157,203.8937,98.584,261.5338,0.0016052,0.00025357,0.0,0 STARLINK-4616,1 53734U 22107AL  23293.77229588  .00025357  00000-0  16052-2 0  9999,2 53734  53.2157 203.8937 0001636  98.5840 261.5338 15.08847872 62476,6917.856,95.437,540.853,538.59,0.0
53734.0,STARLINK-4616,PAYLOAD,2023-10-20 21:42:52,15.08827782,0.0001251,53.2164,203.2991,88.3744,271.7391,0.00073103,0.00011362,0.0,0 STARLINK-4616,1 53734U 22107AL  23293.90477646  .00011362  00000-0  73103-3 0  9996,2 53734  53.2164 203.2991 0001251  88.3744 271.7391 15.08827782 63124,6917.918,95.438,540.648,538.917,0.0
53734.0,STARLINK-4616,PAYLOAD,2023-10-20 23:18:16,15.08827807,0.0001165,53.2163,203.0023,76.651,283.4612,0.0013736,0.00021633,0.0,0 STARLINK-4616,1 53734U 22107AL  23293.97101897  .00021633  00000-0  13736-2 0  9992,2 53734  53.2163 203.0023 0001165  76.6510 283.4612 15.08827807 62507,6917.918,95.438,540.589,538.977,0.0
53734.0,STARLINK-4616,PAYLOAD,2023-10-21 10:25:57,15.08850947,0.0001171,53.2158,200.9204,75.5286,284.5836,0.0015721,0.00024828,0.0,0 STARLINK-4616,1 53734U 22107AL  23294.43469840  .00024828  00000-0  15721-2 0  9994,2 53734  53.2158 200.9204 0001171  75.5286 284.5836 15.08850947 63202,6917.847,95.437,540.522,538.902,0.0
53734.0,STARLINK-4616,PAYLOAD,2023-10-21 21:33:39,15.08870055,0.0001357,53.2158,198.8394,89.4286,270.6861,0.0011913,0.00018738,0.0,0 STARLINK-4616,1 53734U 22107AL  23294.89837146  .00018738  00000-0  11913-2 0  9994,2 53734  53.2158 198.8394 0001357  89.4286 270.6861 15.08870055 63270,6917.789,95.436,540.592,538.715,0.0
53734.0,STARLINK-4616,PAYLOAD,2023-10-22 03:55:11,15.08885701,0.0001317,53.2164,197.6506,82.9505,277.1636,0.0010856,0.00017053,0.0,0 STARLINK-4616,1 53734U 22107AL  23295.16332293  .00017053  00000-0  10856-2 0  9992,2 53734  53.2164 197.6506 0001317  82.9505 277.1636 15.08885701 62687,6917.741,95.435,540.517,538.695,0.0
53734.0,STARLINK-4616,PAYLOAD,2023-10-22 10:16:44,15.08855005,0.0002328,53.2166,196.4585,71.81,288.3146,-0.00010657,-1.985e-05,0.0,0 STARLINK-4616,1 53734U 22107AL  23295.42828910 -.00001985  00000-0 -10657-3 0  9996,2 53734  53.2166 196.4585 0002328  71.8100 288.3146 15.08855005 62723,6917.835,95.437,541.31,538.089,0.0
53734.0,STARLINK-4616,PAYLOAD,2023-10-22 21:24:26,15.08819668,0.0001369,53.2161,194.3795,69.158,290.9559,-0.00056954,-9.336e-05,0.0,0 STARLINK-4616,1 53734U 22107AL  23295.89197760 -.00009336  00000-0 -56954-3 0  9997,2 53734  53.2161 194.3795 0001369  69.1580 290.9559 15.08819668 63424,6917.943,95.439,540.755,538.86,0.0
53734.0,STARLINK-4616,PAYLOAD,2023-10-23 00:35:13,15.08809352,0.0001328,53.216,193.7856,68.9154,291.198,0.0010247,0.00016044,0.0,0 STARLINK-4616,1 53734U 22107AL  23296.02446311  .00016044  00000-0  10247-2 0  9998,2 53734  53.2160 193.7856 0001328  68.9154 291.1980 15.08809352 62815,6917.974,95.439,540.758,538.92,0.0
53734.0,STARLINK-4616,PAYLOAD,2023-10-23 21:15:15,15.08841399,0.0001311,53.2166,189.9204,69.3906,290.7227,0.0014561,0.00022963,0.0,0 STARLINK-4616,1 53734U 22107AL  23296.88559271  .00022963  00000-0  14561-2 0  9992,2 53734  53.2166 189.9204 0001311  69.3906 290.7227 15.08841399 63577,6917.876,95.437,540.648,538.834,0.0
53734.0,STARLINK-4616,PAYLOAD,2023-10-24 09:58:20,15.0885579,0.0001316,53.2163,187.5415,74.9667,285.1471,0.0011345,0.00017821,0.0,0 STARLINK-4616,1 53734U 22107AL  23297.41550962  .00017821  00000-0  11345-2 0  9994,2 53734  53.2163 187.5415 0001316  74.9667 285.1471 15.08855790 63022,6917.832,95.437,540.608,538.787,0.0
53734.0,STARLINK-4616,PAYLOAD,2023-10-25 22:32:10,15.08859037,0.0001239,53.2166,180.7015,81.2515,278.8618,0.00049562,7.613e-05,0.0,0 STARLINK-4616,1 53734U 22107AL  23298.93901612  .00007613  00000-0  49562-3 0  9995,2 53734  53.2166 180.7015 0001239  81.2515 278.8618 15.08859037 63258,6917.822,95.436,540.544,538.83,0.0
53734.0,STARLINK-4616,PAYLOAD,2023-10-26 01:42:57,15.0886086,0.0001325,53.2162,180.1067,84.0349,276.0794,0.00060669,9.386e-05,0.0,0 STARLINK-4616,1 53734U 22107AL  23299.07149485  .00009386  00000-0  60669-3 0  9993,2 53734  53.2162 180.1067 0001325  84.0349 276.0794 15.08860860 63900,6917.817,95.436,540.598,538.765,0.0
53734.0,STARLINK-4616,PAYLOAD,2023-10-26 20:47:34,15.08850165,0.0001422,53.2166,176.5382,93.5113,266.6042,0.0010314,0.00016169,0.0,0 STARLINK-4616,1 53734U 22107AL  23299.86637645  .00016169  00000-0  10314-2 0  9998,2 53734  53.2166 176.5382 0001422  93.5113 266.6042 15.08850165 64027,6917.849,95.437,540.698,538.731,0.0
53734.0,STARLINK-4616,PAYLOAD,2023-10-27 01:33:44,15.08856991,0.0001441,53.2167,175.6469,91.581,268.5347,0.0011776,0.00018512,0.0,0 STARLINK-4616,1 53734U 22107AL  23300.06509524  .00018512  00000-0  11776-2 0  9994,2 53734  53.2167 175.6469 0001441  91.5810 268.5347 15.08856991 63422,6917.828,95.436,540.69,538.697,0.0
53734.0,STARLINK-4616,PAYLOAD,2023-10-27 09:30:40,15.08843018,0.0001511,53.2181,174.16,81.1451,278.9712,0.0004124,6.282e-05,0.0,0 STARLINK-4616,1 53734U 22107AL  23300.39629832  .00006282  00000-0  41240-3 0  9996,2 53734  53.2181 174.1600 0001511  81.1451 278.9712 15.08843018 63475,6917.871,95.437,540.781,538.691,0.0
53734.0,STARLINK-4616,PAYLOAD,2023-10-27 22:13:45,15.08837708,0.0001566,53.2171,171.7807,89.5342,270.5829,0.00026382,3.913e-05,0.0,0 STARLINK-4616,1 53734U 22107AL  23300.92622093  .00003913  00000-0  26382-3 0  9995,2 53734  53.2171 171.7807 0001566  89.5342 270.5829 15.08837708 64182,6917.887,95.438,540.836,538.669,0.0
53734.0,STARLINK-4616,PAYLOAD,2023-10-28 01:24:31,15.08835519,0.0001648,53.2165,171.1841,91.4109,268.7072,0.00011194,1.494e-05,0.0,0 STARLINK-4616,1 53734U 22107AL  23301.05870189  .00001494  00000-0  11194-3 0  9998,2 53734  53.2165 171.1841 0001648  91.4109 268.7072 15.08835519 64201,6917.894,95.438,540.899,538.619,0.0
53734.0,STARLINK-4616,PAYLOAD,2023-10-28 20:29:09,15.08835939,0.0001585,53.2168,167.6161,92.9138,267.2036,6.1095e-05,6.84e-06,0.0,0 STARLINK-4616,1 53734U 22107AL  23301.85358555  .00000684  00000-0  61095-4 0  9990,2 53734  53.2168 167.6161 0001585  92.9138 267.2036 15.08835939 63699,6917.893,95.438,540.854,538.661,0.0
53734.0,STARLINK-4616,PAYLOAD,2023-10-28 22:04:32,15.0884208,0.0001316,53.2162,167.3195,91.2366,268.8777,0.00010042,1.311e-05,0.0,0 STARLINK-4616,1 53734U 22107AL  23301.91982297  .00001311  00000-0  10042-3 0  9996,2 53734  53.2162 167.3195 0001316  91.2366 268.8777 15.08842080 64330,6917.874,95.437,540.649,538.829,0.0
53734.0,STARLINK-4616,PAYLOAD,2023-10-29 07:36:51,15.08845847,0.0001345,53.2163,165.5358,91.1352,268.9794,0.00027464,4.086e-05,0.0,0 STARLINK-4616,1 53734U 22107AL  23302.31726293  .00004086  00000-0  27464-3 0  9991,2 53734  53.2163 165.5358 0001345  91.1352 268.9794 15.08845847 63768,6917.863,95.437,540.658,538.797,0.0
53734.0,STARLINK-4616,PAYLOAD,2023-10-29 21:55:19,15.08846685,0.0001493,53.2165,162.8627,92.7248,267.3915,0.00027216,4.047e-05,0.0,0 STARLINK-4616,1 53734U 22107AL  23302.91342327  .00004047  00000-0  27216-3 0  9991,2 53734  53.2165 162.8627 0001493  92.7248 267.3915 15.08846685 64483,6917.86,95.437,540.758,538.692,0.0
53734.0,STARLINK-4616,PAYLOAD,2023-10-30 21:46:07,15.08837966,0.0001436,53.2158,158.4003,96.9392,263.1764,1.9669e-05,2.5e-07,0.0,0 STARLINK-4616,1 53734U 22107AL  23303.90702723  .00000025  00000-0  19669-4 0  9997,2 53734  53.2158 158.4003 0001436  96.9392 263.1764 15.08837966 64003,6917.887,95.438,540.745,538.758,0.0
53734.0,STARLINK-4616,PAYLOAD,2023-10-31 07:18:26,15.08838091,0.0001389,53.2157,156.6151,92.1418,267.9733,3.2244e-05,2.25e-06,0.0,0 STARLINK-4616,1 53734U 22107AL  23304.30446761  .00000225  00000-0  32244-4 0  9995,2 53734  53.2157 156.6151 0001389  92.1418 267.9733 15.08838091 64693,6917.886,95.438,540.712,538.79,0.0
53734.0,STARLINK-4616,PAYLOAD,2023-10-31 21:36:54,15.08842836,0.0001367,53.216,153.9389,90.9334,269.1815,0.00014346,1.996e-05,0.0,0 STARLINK-4616,1 53734U 22107AL  23304.90062729  .00001996  00000-0  14346-3 0  9997,2 53734  53.2160 153.9389 0001367  90.9334 269.1815 15.08842836 64786,6917.872,95.437,540.682,538.791,0.0
53734.0,STARLINK-4616,PAYLOAD,2023-10-31 23:12:17,15.08845175,0.0001394,53.2159,153.6418,91.5439,268.5713,0.00019835,2.871e-05,0.0,0 STARLINK-4616,1 53734U 22107AL  23304.96686664  .00002871  00000-0  19835-3 0  9994,2 53734  53.2159 153.6418 0001394  91.5439 268.5713 15.08845175 64168,6917.865,95.437,540.694,538.765,0.0
53734.0,STARLINK-4616,PAYLOAD,2023-11-01 13:30:45,15.08838882,0.0001493,53.2161,150.965,88.9396,271.1768,0.00010895,1.446e-05,0.0,0 STARLINK-4616,1 53734U 22107AL  23305.56303042  .00001446  00000-0  10895-3 0  9991,2 53734  53.2161 150.9650 0001493  88.9396 271.1768 15.08838882 64887,6917.884,95.438,540.782,538.716,0.0
53734.0,STARLINK-4616,PAYLOAD,2023-11-01 19:52:18,15.08841845,0.0001328,53.2157,149.7756,90.5073,269.6071,0.0001419,1.971e-05,0.0,0 STARLINK-4616,1 53734U 22107AL  23305.82798903  .00001971  00000-0  14190-3 0  9999,2 53734  53.2157 149.7756 0001328  90.5073 269.6071 15.08841845 64290,6917.875,95.437,540.658,538.821,0.0
